{"type": "FeatureCollection", "features": [ {"type": "Feature", "properties": {"norad_id": 35797, "name": "IRIDIUM 33 DEB", "group": "iridium-33-debris", "lat": -81.49613798057867, "lon": -61.39376853203433, "alt_km": 637.4550629811656, "timestamp": "2025-12-25T19:00:39.736514+00:00", "meta": {"OBJECT_NAME": "IRIDIUM 33 DEB", "OBJECT_ID": "1997-051SF", "EPOCH": "2025-12-25T04:48:32.062176", "MEAN_MOTION": 14.83087004, "ECCENTRICITY": 0.00151422, "INCLINATION": 86.3371, "RA_OF_ASC_NODE": 324.2466, "ARG_OF_PERICENTER": 108.6967, "MEAN_ANOMALY": 251.5901, "EPHEMERIS_TYPE": 0, "CLASSIFICATION_TYPE": "U", "NORAD_CAT_ID": 35797, "ELEMENT_SET_NO": 999, "REV_AT_EPOCH": 87525, "BSTAR": 0.0019466252, "MEAN_MOTION_DOT": 0.00015924, "MEAN_MOTION_DDOT": 0}, "tle": {"line1": "1 35797U 97051SF  25359.20037109  .00015924  00000+0  19466-2 0  9997", "line2": "2 35797  86.3371 324.2466 0015142 108.6967 251.5901 14.83087004875253"}}, "geometry": {"type": "Point", "coordinates": [-61.39376853203433, -81.49613798057867]}}, {"type": "Feature", "properties": {"norad_id": 35806, "name": "IRIDIUM 33 DEB", "group": "iridium-33-debris", "lat": 73.36081181440035, "lon": -177.47502068893064, "alt_km": 690.9305314298508, "timestamp": "2025-12-25T19:00:39.736524+00:00", "meta": {"OBJECT_NAME": "IRIDIUM 33 DEB", "OBJECT_ID": "1997-051SQ", "EPOCH": "2025-12-23T18:44:28.886496", "MEAN_MOTION": 14.57443021, "ECCENTRICITY": 0.00152726, "INCLINATION": 86.3434, "RA_OF_ASC_NODE": 15.7661, "ARG_OF_PERICENTER": 41.8859, "MEAN_ANOMALY": 318.3515, "EPHEMERIS_TYPE": 0, "CLASSIFICATION_TYPE": "U", "NORAD_CAT_ID": 35806, "ELEMENT_SET_NO": 999, "REV_AT_EPOCH": 86485, "BSTAR": 0.0011018111, "MEAN_MOTION_DOT": 5.028e-05, "MEAN_MOTION_DDOT": 0}, "tle": {"line1": "1 35806U 97051SQ  25357.78088989  .00005028  00000+0  11018-2 0  9990", "line2": "2 35806  86.3434  15.7661 0015272  41.8859 318.3515 14.57443021864858"}}, "geometry": {"type": "Point", "coordinates": [-177.47502068893064, 73.36081181440035]}}, {"type": "Feature", "properties": {"norad_id": 35809, "name": "IRIDIUM 33 DEB", "group": "iridium-33-debris", "lat": -74.73297296915264, "lon": 163.01167276750374, "alt_km": 646.3432949560938, "timestamp": "2025-12-25T19:00:39.736534+00:00", "meta": {"OBJECT_NAME": "IRIDIUM 33 DEB", "OBJECT_ID": "1997-051ST", "EPOCH": "2025-12-21T16:13:39.380736", "MEAN_MOTION": 14.75870585, "ECCENTRICITY": 0.00102664, "INCLINATION": 86.3279, "RA_OF_ASC_NODE": 331.2775, "ARG_OF_PERICENTER": 205.8578, "MEAN_ANOMALY": 154.2129, "EPHEMERIS_TYPE": 0, "CLASSIFICATION_TYPE": "U", "NORAD_CAT_ID": 35809, "ELEMENT_SET_NO": 999, "REV_AT_EPOCH": 86939, "BSTAR": 0.0013721853, "MEAN_MOTION_DOT": 9.452e-05, "MEAN_MOTION_DDOT": 0}, "tle": {"line1": "1 35809U 97051ST  25355.67615024  .00009452  00000+0  13722-2 0  9994", "line2": "2 35809  86.3279 331.2775 0010266 205.8578 154.2129 14.75870585869399"}}, "geometry": {"type": "Point", "coordinates": [163.01167276750374, -74.73297296915264]}}, {"type": "Feature", "properties": {"norad_id": 35846, "name": "IRIDIUM 33 DEB", "group": "iridium-33-debris", "lat": -55.459544003404794, "lon": 47.98394923689994, "alt_km": 769.1484447884504, "timestamp": "2025-12-25T19:00:39.736544+00:00", "meta": {"OBJECT_NAME": "IRIDIUM 33 DEB", "OBJECT_ID": "1997-051SW", "EPOCH": "2025-12-24T21:38:12.688800", "MEAN_MOTION": 14.43199531, "ECCENTRICITY": 0.0019834, "INCLINATION": 86.3738, "RA_OF_ASC_NODE": 53.6502, "ARG_OF_PERICENTER": 132.6503, "MEAN_ANOMALY": 227.6373, "EPHEMERIS_TYPE": 0, "CLASSIFICATION_TYPE": "U", "NORAD_CAT_ID": 35846, "ELEMENT_SET_NO": 999, "REV_AT_EPOCH": 71504, "BSTAR": 0.00052874, "MEAN_MOTION_DOT": 1.8e-05, "MEAN_MOTION_DDOT": 0}, "tle": {"line1": "1 35846U 97051SW  25358.90153575  .00001800  00000+0  52874-3 0  9993", "line2": "2 35846  86.3738  53.6502 0019834 132.6503 227.6373 14.43199531715046"}}, "geometry": {"type": "Point", "coordinates": [47.98394923689994, -55.459544003404794]}}, {"type": "Feature", "properties": {"norad_id": 35848, "name": "IRIDIUM 33 DEB", "group": "iridium-33-debris", "lat": -14.745328182442492, "lon": 9.300435130130964, "alt_km": 643.6195160357729, "timestamp": "2025-12-25T19:00:39.736554+00:00", "meta": {"OBJECT_NAME": "IRIDIUM 33 DEB", "OBJECT_ID": "1997-051SY", "EPOCH": "2025-12-23T08:36:58.937472", "MEAN_MOTION": 14.78845827, "ECCENTRICITY": 0.00091619, "INCLINATION": 86.3897, "RA_OF_ASC_NODE": 11.347, "ARG_OF_PERICENTER": 152.9599, "MEAN_ANOMALY": 207.2101, "EPHEMERIS_TYPE": 0, "CLASSIFICATION_TYPE": "U", "NORAD_CAT_ID": 35848, "ELEMENT_SET_NO": 999, "REV_AT_EPOCH": 66847, "BSTAR": 0.0014935306, "MEAN_MOTION_DOT": 0.00011029, "MEAN_MOTION_DDOT": 0}, "tle": {"line1": "1 35848U 97051SY  25357.35901548  .00011029  00000+0  14935-2 0  9993", "line2": "2 35848  86.3897  11.3470 0009161 152.9599 207.2101 14.78845827668472"}}, "geometry": {"type": "Point", "coordinates": [9.300435130130964, -14.745328182442492]}}, {"type": "Feature", "properties": {"norad_id": 35850, "name": "IRIDIUM 33 DEB", "group": "iridium-33-debris", "lat": -40.39964648669719, "lon": -24.80744074841514, "alt_km": 646.3624467943455, "timestamp": "2025-12-25T19:00:39.736564+00:00", "meta": {"OBJECT_NAME": "IRIDIUM 33 DEB", "OBJECT_ID": "1997-051TA", "EPOCH": "2025-12-23T16:51:33.482304", "MEAN_MOTION": 14.79050016, "ECCENTRICITY": 0.00107739, "INCLINATION": 86.3501, "RA_OF_ASC_NODE": 339.2572, "ARG_OF_PERICENTER": 146.4147, "MEAN_ANOMALY": 213.7758, "EPHEMERIS_TYPE": 0, "CLASSIFICATION_TYPE": "U", "NORAD_CAT_ID": 35850, "ELEMENT_SET_NO": 999, "REV_AT_EPOCH": 71519, "BSTAR": 0.001670653, "MEAN_MOTION_DOT": 0.00012399, "MEAN_MOTION_DDOT": 0}, "tle": {"line1": "1 35850U 97051TA  25357.70247086  .00012399  00000+0  16707-2 0  9995", "line2": "2 35850  86.3501 339.2572 0010773 146.4147 213.7758 14.79050016715191"}}, "geometry": {"type": "Point", "coordinates": [-24.80744074841514, -40.39964648669719]}}, {"type": "Feature", "properties": {"norad_id": 35915, "name": "IRIDIUM 33 DEB", "group": "iridium-33-debris", "lat": -10.112445350236001, "lon": -23.661182015065023, "alt_km": 637.7469453126769, "timestamp": "2025-12-25T19:00:39.736574+00:00", "meta": {"OBJECT_NAME": "IRIDIUM 33 DEB", "OBJECT_ID": "1997-051TY", "EPOCH": "2025-12-22T16:27:49.238784", "MEAN_MOTION": 14.80964903, "ECCENTRICITY": 0.00122455, "INCLINATION": 86.3447, "RA_OF_ASC_NODE": 338.4114, "ARG_OF_PERICENTER": 150.5648, "MEAN_ANOMALY": 209.6266, "EPHEMERIS_TYPE": 0, "CLASSIFICATION_TYPE": "U", "NORAD_CAT_ID": 35915, "ELEMENT_SET_NO": 999, "REV_AT_EPOCH": 8233, "BSTAR": 0.0017914035, "MEAN_MOTION_DOT": 0.00013917, "MEAN_MOTION_DDOT": 0}, "tle": {"line1": "1 35915U 97051TY  25356.68598656  .00013917  00000+0  17914-2 0  9993", "line2": "2 35915  86.3447 338.4114 0012245 150.5648 209.6266 14.80964903 82335"}}, "geometry": {"type": "Point", "coordinates": [-23.661182015065023, -10.112445350236001]}}, {"type": "Feature", "properties": {"norad_id": 35918, "name": "IRIDIUM 33 DEB", "group": "iridium-33-debris", "lat": -16.760171185619946, "lon": -108.70069392143253, "alt_km": 718.8659982137397, "timestamp": "2025-12-25T19:00:39.736585+00:00", "meta": {"OBJECT_NAME": "IRIDIUM 33 DEB", "OBJECT_ID": "1997-051UB", "EPOCH": "2025-12-24T23:03:09.203616", "MEAN_MOTION": 14.51342754, "ECCENTRICITY": 0.00284851, "INCLINATION": 86.3998, "RA_OF_ASC_NODE": 70.5699, "ARG_OF_PERICENTER": 130.6271, "MEAN_ANOMALY": 43.5338, "EPHEMERIS_TYPE": 0, "CLASSIFICATION_TYPE": "U", "NORAD_CAT_ID": 35918, "ELEMENT_SET_NO": 999, "REV_AT_EPOCH": 85384, "BSTAR": 0.0010816421, "MEAN_MOTION_DOT": 4.351e-05, "MEAN_MOTION_DDOT": 0}, "tle": {"line1": "1 35918U 97051UB  25358.96052319  .00004351  00000+0  10816-2 0  9996", "line2": "2 35918  86.3998  70.5699 0028485 130.6271  43.5338 14.51342754853844"}}, "geometry": {"type": "Point", "coordinates": [-108.70069392143253, -16.760171185619946]}}, {"type": "Feature", "properties": {"norad_id": 35929, "name": "IRIDIUM 33 DEB", "group": "iridium-33-debris", "lat": -25.424502762754255, "lon": 128.1855854932707, "alt_km": 571.887472155292, "timestamp": "2025-12-25T19:00:39.736596+00:00", "meta": {"OBJECT_NAME": "IRIDIUM 33 DEB", "OBJECT_ID": "1997-051UN", "EPOCH": "2025-12-23T14:58:27.135552", "MEAN_MOTION": 15.03115552, "ECCENTRICITY": 0.00156026, "INCLINATION": 86.3353, "RA_OF_ASC_NODE": 307.468, "ARG_OF_PERICENTER": 2.5785, "MEAN_ANOMALY": 357.5526, "EPHEMERIS_TYPE": 0, "CLASSIFICATION_TYPE": "U", "NORAD_CAT_ID": 35929, "ELEMENT_SET_NO": 999, "REV_AT_EPOCH": 87943, "BSTAR": 0.0026490117, "MEAN_MOTION_DOT": 0.00035991, "MEAN_MOTION_DDOT": 0}, "tle": {"line1": "1 35929U 97051UN  25357.62392518  .00035991  00000+0  26490-2 0  9997", "line2": "2 35929  86.3353 307.4680 0015602   2.5785 357.5526 15.03115552879439"}}, "geometry": {"type": "Point", "coordinates": [128.1855854932707, -25.424502762754255]}}, {"type": "Feature", "properties": {"norad_id": 36011, "name": "IRIDIUM 33 DEB", "group": "iridium-33-debris", "lat": 40.170332975237905, "lon": -153.27889780086437, "alt_km": 739.6349816896573, "timestamp": "2025-12-25T19:00:39.736606+00:00", "meta": {"OBJECT_NAME": "IRIDIUM 33 DEB", "OBJECT_ID": "1997-051US", "EPOCH": "2025-12-24T09:18:17.279136", "MEAN_MOTION": 14.41362135, "ECCENTRICITY": 0.00188734, "INCLINATION": 86.3402, "RA_OF_ASC_NODE": 30.4215, "ARG_OF_PERICENTER": 177.2164, "MEAN_ANOMALY": 239.7358, "EPHEMERIS_TYPE": 0, "CLASSIFICATION_TYPE": "U", "NORAD_CAT_ID": 36011, "ELEMENT_SET_NO": 999, "REV_AT_EPOCH": 64708, "BSTAR": 0.00041423237, "MEAN_MOTION_DOT": 1.363e-05, "MEAN_MOTION_DDOT": 0}, "tle": {"line1": "1 36011U 97051US  25358.38769999  .00001363  00000+0  41423-3 0  9995", "line2": "2 36011  86.3402  30.4215 0018873 177.2164 239.7358 14.41362135647088"}}, "geometry": {"type": "Point", "coordinates": [-153.27889780086437, 40.170332975237905]}}]}